HYPSO-2                 
1 60531U 24149BR  26098.15937872  .00003426  00000+0  29154-3 0  9990
2 60531  97.6839 175.4496 0002115 124.1430 235.9994 14.98463568 89562
LEMU NGE                
1 60532U 24149BS  26098.16603154  .00002678  00000+0  25212-3 0  9994
2 60532  97.6866 174.5481 0000846 131.7711 228.3582 14.94675668 89495
LEMUR-2-STELLA          
1 60533U 24149BT  26098.15149647  .00011100  00000+0  68034-3 0  9995
2 60533  97.6737 180.3856 0001073 118.4539 241.6799 15.10334651 89926
SATELIOT_2              
1 60534U 24149BU  26098.14060720  .00001886  00000+0  17279-3 0  9994
2 60534  97.6842 174.3800 0001101  86.0989 274.0358 14.96106967 89490
NIGHTJAR                
1 60535U 24149BV  26098.09324417  .00003729  00000+0  31553-3 0  9994
2 60535  97.6860 175.7882 0001936  91.5849 268.5595 14.98630389132377
LEMUR-2-MARHISYAM       
1 60536U 24149BW  26098.17430787  .00012236  00000+0  75941-3 0  9994
2 60536  97.6877 180.7821 0001929  39.3133 320.8235 15.09853148 89910
SATELIOT_4              
1 60537U 24149BX  26098.16582714  .00002457  00000+0  22179-3 0  9991
2 60537  97.6762 173.9799 0000260 225.0158 135.1042 14.96417495 89504
PICO-02A021             
1 60538U 24149BY  26098.19144234  .00004427  00000+0  33706-3 0  9993
2 60538  97.6747 177.6643 0003217 244.7074 115.3818 15.02594376 89229
ICEYE-X43               
1 60539U 24149BZ  26098.17116727  .00003704  00000+0  30574-3 0  9995
2 60539  97.6833 176.0867 0002074  14.0884 346.0396 14.99605178 89620
HAWK-10A                
1 60540U 24149CA  26098.15827891  .00001993  00000+0  18141-3 0  9990
2 60540  97.6908 175.2766 0002018 330.3655  29.7451 14.96299875 89517
UMBRA-09                
1 60541U 24149CB  26098.21252629  .00017909  00000+0  93463-3 0  9993
2 60541  97.6960 184.3441 0001803 197.0679 163.0493 15.15993721 90111
QPS-SAR-8 (AMATERU-IV)  
1 60542U 24149CC  26098.19239655  .00004567  00000+0  33983-3 0  9992
2 60542  97.6668 177.9664 0003153  17.2022 342.9310 15.03447601 89759
ARCTIC WEATHER SATELLITE
1 60543U 24149CD  26098.16789259  .00000895  00000+0  98849-4 0  9993
2 60543  97.6834 170.6228 0002075  25.3030 334.8290 14.89816677 88877
CAPELLA-15 (ACADIA-5)   
1 60544U 24149CE  26098.19207546  .00005752  00000+0  56601-3 0  9997
2 60544  97.6771 172.8300 0002776 315.3572  44.7423 14.92462102 89414
HAWK-10B                
1 60545U 24149CF  26098.15817776  .00002263  00000+0  20528-3 0  9999
2 60545  97.6832 174.7017 0004380 345.2939  14.8154 14.96305804 89510
ICEYE-X39               
1 60546U 24149CG  26098.15199862  .00003926  00000+0  32493-3 0  9990
2 60546  97.6789 176.1198 0001622 314.7012  45.4078 14.99459706 89628
UMBRA-10                
1 60547U 24149CH  26098.21207953  .00016643  00000+0  86897-3 0  9996
2 60547  97.6964 184.3654 0001671 159.8287 200.3012 15.15993557 90121
ICEYE-X33               
1 60548U 24149CJ  26098.17080080  .00004814  00000+0  37703-3 0  9991
2 60548  97.7066 177.7812 0004995  41.8832 318.2773 15.01474103 89707
ICEYE-X40               
1 60549U 24149CK  26098.15723950  .00002434  00000+0  21262-3 0  9999
2 60549  97.6819 175.7837 0003184 328.2622  31.8408 14.97710616 89592
SATELIOT_1              
1 60550U 24149CL  26098.15271571  .00002338  00000+0  20412-3 0  9997
2 60550  97.6762 175.2243 0005022 318.0875  41.9962 14.97771036 89586
BRO-14                  
1 60551U 24149CM  26098.17017858  .00001923  00000+0  17636-3 0  9999
2 60551  97.6895 175.2049 0005986 347.0510  13.0557 14.96039627 89521
SATELIOT_3              
1 60552U 24149CN  26098.19493135  .00001655  00000+0  14594-3 0  9990
2 60552  97.6833 175.9937 0004395 329.2061  30.8902 14.97774298 89604
BRO-15                  
1 60553U 24149CP  26098.15080643  .00001634  00000+0  15073-3 0  9993
2 60553  97.6817 174.8538 0006944 331.4742  28.6099 14.96003201 89537
UM5-RIBAT               
1 60554U 24149CQ  26098.20260148  .00002888  00000+0  23273-3 0  9993
2 60554  97.6692 176.9416 0000607  92.2920 267.8374 15.00700154 89694
UM5-EOSAT               
1 60555U 24149CR  26098.18834050  .00002510  00000+0  20065-3 0  9998
2 60555  97.6731 177.8043 0005039   9.1454 350.9861 15.01119333 89710
LASARSAT                
1 62391U 24247Q   26097.59365964  .00030839  00000+0  70651-3 0  9995
2 62391  44.9757 297.6059 0005839 255.5477 104.4763 15.42265307 72400
CROCUBE                 
1 62394U 24247T   26097.53533441  .00036080  00000+0  78807-3 0  9994
2 62394  44.9733 296.2403 0005291 253.7610 106.2697 15.43618983 72416
TEVEL2-4                
1 63213U 25052D   26098.16034288  .00018096  00000+0  58271-3 0  9995
2 63213  97.3976 354.5379 0003155  40.9984 319.1494 15.32258548 59381
TEVEL2-5                
1 63214U 25052E   26098.17378295  .00018550  00000+0  59980-3 0  9999
2 63214  97.3973 354.5173 0003168  41.1344 319.0136 15.32120703 59381
TEVEL2-6                
1 63215U 25052F   26097.79250770  .00018865  00000+0  61098-3 0  9996
2 63215  97.3973 354.1220 0003320  40.0399 320.1087 15.32064345 59320
TEVEL2-1                
1 63217U 25052H   26097.66837228  .00018588  00000+0  61070-3 0  9995
2 63217  97.3948 353.7008 0003856  48.9310 311.2264 15.31603920 59298
TEVEL2-3                
1 63218U 25052J   26096.94657204  .00021168  00000+0  69454-3 0  9992
2 63218  97.3950 352.9950 0003971  51.2202 308.9394 15.31619047 59186
TEVEL2-2                
1 63219U 25052K   26097.21163683  .00021944  00000+0  72038-3 0  9991
2 63219  97.3947 353.2461 0003876  50.7466 309.4119 15.31595334 59222
TEVEL2-9                
1 63237U 25052AD  26097.69058120  .00016580  00000+0  57579-3 0  9995
2 63237  97.4012 353.2412 0007615  46.6527 313.5347 15.29810908 59244
TEVEL2-7                
1 63238U 25052AE  26097.98089690  .00016194  00000+0  56654-3 0  9998
2 63238  97.4014 353.4730 0007706  45.5273 314.6596 15.29575355 59285
TEVEL2-8                
1 63239U 25052AF  26097.66122112  .00016891  00000+0  59129-3 0  9995
2 63239  97.4014 353.1342 0007731  47.1840 313.0049 15.29544625 59235
HADES-ICM               
1 63492U 25052BN  26097.46642554  .00233261  00000+0  20438-2 0  9993
2 63492  97.3881 359.1652 0005615  76.2366 283.9520 15.68134044 59638
FORESAIL-1 PRIME        
1 66778U 25276DS  26097.94260288  .00005353  00000+0  26600-3 0  9991
2 66778  97.4228 172.5228 0002534  28.9592 331.1782 15.18072344 19745
